TEIKYOSAT-4 (OORURI)    
1 49396U 21102B   26068.67534185  .00002438  00000+0  15740-3 0  9994
2 49396  97.3797 101.9931 0010345 276.5421  83.4630 15.09119208237719
STARLINK-3937           
1 52542U 22051K   26068.54817021  .00000948  00000+0  77679-4 0  9998
2 52542  53.2174 129.7560 0001394  88.4128 271.7023 15.08835134211420
